#dV2023  2  8 10  0  0.00000000    1682       CTS   FIT  GFZ
## 2248 295200.00000000    30.00000000 59983 0.4166666666667
+    1   L65  0  0  0  0  0  0  0  0  0  0  0  0  0  0  0  0
+          0  0  0  0  0  0  0  0  0  0  0  0  0  0  0  0  0
+          0  0  0  0  0  0  0  0  0  0  0  0  0  0  0  0  0
+          0  0  0  0  0  0  0  0  0  0  0  0  0  0  0  0  0
+          0  0  0  0  0  0  0  0  0  0  0  0  0  0  0  0  0
++         0  0  0  0  0  0  0  0  0  0  0  0  0  0  0  0  0
++         0  0  0  0  0  0  0  0  0  0  0  0  0  0  0  0  0
++         0  0  0  0  0  0  0  0  0  0  0  0  0  0  0  0  0
++         0  0  0  0  0  0  0  0  0  0  0  0  0  0  0  0  0
++         0  0  0  0  0  0  0  0  0  0  0  0  0  0  0  0  0
%c L  cc GPS ccc cccc cccc cccc cccc ccccc ccccc ccccc ccccc
%c cc cc ccc ccc cccc cccc cccc cccc ccccc ccccc ccccc ccccc
%f  0.0000000  0.000000000  0.00000000000  0.000000000000000
%f  0.0000000  0.000000000  0.00000000000  0.000000000000000
%i    0    0    0    0      0      0      0      0         0
%i    0    0    0    0      0      0      0      0         0
/* CCCCCCCCCCCCCCCCCCCCCCCCCCCCCCCCCCCCCCCCCCCCCCCCCCCCCCCCCCCCCCCCCCCCCCCCCCCCC
/* C                             GFZ RSO-ORBIT                                 C
/* C DOI: https://doi.org/10.5880/GFZ_ORBIT/RSO/L65_G_v02                      C
/* C                                                                           C
/* C DORIS        RMS: not applicable                                          C
/* C GNSS-E Code  RMS: not applicable                                          C
/* C GNSS-E Phase RMS: not applicable                                          C
/* C GNSS-G Code  RMS:  48.828 [cm]   Obs.acc.:     13960 Obs.eli.:      1066  C
/* C GNSS-G Phase RMS:   4.579 [mm]   Obs.acc.:     13960 Obs.eli.:      1066  C
/* C SLR          RMS:   9.231 [cm]   Obs.acc.:        36 Obs.eli.:         0  C
/* C                                                                           C
/* CCCCCCCCCCCCCCCCCCCCCCCCCCCCCCCCCCCCCCCCCCCCCCCCCCCCCCCCCCCCCCCCCCCCCCCCCCCCC
*  2023  2  8 18  4 30.00000000
PL65  -4238.292533   4053.593297   3552.516716   5273.983819
VL65 -26748.634960  29333.546275 -65218.422733 999999.999999
*  2023  2  8 18  5  0.00000000
PL65  -4315.987348   4139.504936   3354.916625   5274.452988
VL65 -25044.124148  27934.327776 -66502.745062 999999.999999
*  2023  2  8 18  5 30.00000000
PL65  -4388.535616   4221.160691   3153.574321   5274.921306
VL65 -23317.952130  26496.538162 -67712.993926 999999.999999
*  2023  2  8 18  6  0.00000000
PL65  -4455.875493   4298.447111   2948.714116   5275.389404
VL65 -21572.213220  25021.696380 -68847.791054 999999.999999
*  2023  2  8 18  6 30.00000000
PL65  -4517.951440   4371.255387   2740.564322   5275.858270
VL65 -19809.019383  23511.374334 -69905.844749 999999.999999
*  2023  2  8 18  7  0.00000000
PL65  -4574.714281   4439.481498   2529.356997   5276.327543
VL65 -18030.497245  21967.194759 -70885.951771 999999.999999
*  2023  2  8 18  7 30.00000000
PL65  -4626.121234   4503.026368   2315.327674   5276.797352
VL65 -16238.785068  20390.829357 -71786.998936 999999.999999
*  2023  2  8 18  8  0.00000000
PL65  -4672.135948   4561.796006   2098.715088   5277.267671
VL65 -14436.029743  18783.996705 -72607.964486 999999.999999
*  2023  2  8 18  8 30.00000000
PL65  -4712.728522   4615.701643   1879.760901   5277.737764
VL65 -12624.384203  17148.460032 -73347.919083 999999.999999
*  2023  2  8 18  9  0.00000000
PL65  -4747.875519   4664.659866   1658.709423   5278.207612
VL65 -10806.005166  15486.025175 -74006.027060 999999.999999
*  2023  2  8 18  9 30.00000000
PL65  -4777.559977   4708.592741   1435.807329   5278.677335
VL65  -8983.050367  13798.538313 -74581.548011 999999.999999
*  2023  2  8 18 10  0.00000000
PL65  -4801.771401   4747.427927   1211.303370   5279.146781
VL65  -7157.675336  12087.883383 -75073.837484 999999.999999
*  2023  2  8 18 10 30.00000000
PL65  -4820.505760   4781.098792    985.448087   5279.616121
VL65  -5332.030729  10355.980174 -75482.347061 999999.999999
*  2023  2  8 18 11  0.00000000
PL65  -4833.765460   4809.544513    758.493522   5280.085515
VL65  -3508.259869   8604.782516 -75806.625681 999999.999999
*  2023  2  8 18 11 30.00000000
PL65  -4841.559326   4832.710176    530.692920   5280.554842
VL65  -1688.495707   6836.275560 -76046.320803 999999.999999
*  2023  2  8 18 12  0.00000000
PL65  -4843.902561   4850.546870    302.300437   5281.024294
VL65    125.141737   5052.473291 -76201.178666 999999.999999
*  2023  2  8 18 12 30.00000000
PL65  -4840.816708   4863.011760     73.570843   5281.493640
VL65   1930.547792   3255.415757 -76271.045116 999999.999999
*  2023  2  8 18 13  0.00000000
PL65  -4832.329593   4870.068171   -155.240784   5281.963072
VL65   3725.635801   1447.165848 -76255.865596 999999.999999
*  2023  2  8 18 13 30.00000000
PL65  -4818.475278   4871.685647   -383.879347   5282.432557
VL65   5508.339635   -370.192152 -76155.685942 999999.999999
*  2023  2  8 18 14  0.00000000
PL65  -4799.293981   4867.840013   -612.090045   5282.902013
VL65   7276.619589  -2194.554693 -75970.654984 999999.999999
*  2023  2  8 18 14 30.00000000
PL65  -4774.831992   4858.513430   -839.618672   5283.371466
VL65   9028.469435  -4023.804797 -75701.022114 999999.999999
*  2023  2  8 18 15  0.00000000
PL65  -4745.141569   4843.694424  -1066.211915   5283.840853
VL65  10761.915695  -5855.815235 -75347.129923 999999.999999
*  2023  2  8 18 15 30.00000000
PL65  -4710.280847   4823.377916  -1291.617625   5284.310319
VL65  12475.012969  -7688.448129 -74909.414284 999999.999999
*  2023  2  8 18 16  0.00000000
PL65  -4670.313756   4797.565258  -1515.585109   5284.779808
VL65  14165.845712  -9519.557717 -74388.409823 999999.999999
*  2023  2  8 18 16 30.00000000
PL65  -4625.309918   4766.264242  -1737.865426   5285.249265
VL65  15832.534618 -11346.995019 -73784.750774 999999.999999
*  2023  2  8 18 17  0.00000000
PL65  -4575.344532   4729.489109  -1958.211687   5285.718701
VL65  17473.241815 -13168.611652 -73099.167946 999999.999999
*  2023  2  8 18 17 30.00000000
PL65  -4520.498245   4687.260539  -2176.379331   5286.188187
VL65  19086.172986 -14982.262360 -72332.484681 999999.999999
*  2023  2  8 18 18  0.00000000
PL65  -4460.857022   4639.605641  -2392.126405   5286.657691
VL65  20669.577608 -16785.806592 -71485.615004 999999.999999
*  2023  2  8 18 18 30.00000000
PL65  -4396.512013   4586.557940  -2605.213836   5287.127216
VL65  22221.750103 -18577.110335 -70559.563650 999999.999999
*  2023  2  8 18 19  0.00000000
PL65  -4327.559413   4528.157345  -2815.405698   5287.596687
VL65  23741.032814 -20354.049269 -69555.426333 999999.999999
*  2023  2  8 18 19 30.00000000
PL65  -4254.100314   4464.450119  -3022.469489   5288.066179
VL65  25225.819686 -22114.513694 -68474.386866 999999.999999
*  2023  2  8 18 20  0.00000000
PL65  -4176.240546   4395.488830  -3226.176381   5288.535674
VL65  26674.556678 -23856.411146 -67317.712097 999999.999999
*  2023  2  8 18 20 30.00000000
PL65  -4094.090528   4321.332295  -3426.301472   5289.005261
VL65  28085.741200 -25577.666215 -66086.750535 999999.999999
*  2023  2  8 18 21  0.00000000
PL65  -4007.765103   4242.045532  -3622.624026   5289.474806
VL65  29457.924009 -27276.222342 -64782.932833 999999.999999
*  2023  2  8 18 21 30.00000000
PL65  -3917.383381   4157.699695  -3814.927722   5289.944302
VL65  30789.711697 -28950.045503 -63407.770464 999999.999999
*  2023  2  8 18 22  0.00000000
PL65  -3823.068565   4068.372002  -4003.000892   5290.413725
VL65  32079.769355 -30597.127544 -61962.853645 999999.999999
*  2023  2  8 18 22 30.00000000
PL65  -3724.947771   3974.145651  -4186.636752   5290.882982
VL65  33326.822836 -32215.489909 -60449.847326 999999.999999
*  2023  2  8 18 23  0.00000000
PL65  -3623.151848   3875.109730  -4365.633618   5291.352161
VL65  34529.657459 -33803.185602 -58870.485909 999999.999999
*  2023  2  8 18 23 30.00000000
PL65  -3517.815204   3771.359120  -4539.795113   5291.821563
VL65  35687.116227 -35358.299095 -57226.572317 999999.999999
*  2023  2  8 18 24  0.00000000
PL65  -3409.075626   3662.994401  -4708.930370   5292.290860
VL65  36798.101657 -36878.948146 -55519.978396 999999.999999
*  2023  2  8 18 24 30.00000000
PL65  -3297.074105   3550.121743  -4872.854239   5292.760342
VL65  37861.578006 -38363.286747 -53752.642677 999999.999999
*  2023  2  8 18 25  0.00000000
PL65  -3181.954642   3432.852800  -5031.387484   5293.229845
VL65  38876.572380 -39809.507543 -51926.567420 999999.999999
*  2023  2  8 18 25 30.00000000
PL65  -3063.864064   3311.304584  -5184.356965   5293.699240
VL65  39842.175368 -41215.843793 -50043.815925 999999.999999
*  2023  2  8 18 26  0.00000000
PL65  -2942.951829   3185.599347  -5331.595823   5294.168703
VL65  40757.541623 -42580.571383 -48106.510121 999999.999999
*  2023  2  8 18 26 30.00000000
PL65  -2819.369834   3055.864445  -5472.943648   5294.638296
VL65  41621.890544 -43902.011019 -46116.828084 999999.999999
*  2023  2  8 18 27  0.00000000
PL65  -2693.272221   2922.232203  -5608.246645   5295.107756
VL65  42434.506919 -45178.530407 -44077.001116 999999.999999
*  2023  2  8 18 27 30.00000000
PL65  -2564.815177   2784.839768  -5737.357790   5295.577397
VL65  43194.741262 -46408.546038 -41989.310636 999999.999999
*  2023  2  8 18 28  0.00000000
PL65  -2434.156741   2643.828965  -5860.136973   5296.046941
VL65  43902.009896 -47590.524766 -39856.085402 999999.999999
*  2023  2  8 18 28 30.00000000
PL65  -2301.456603   2499.346139  -5976.451140   5296.516285
VL65  44555.795175 -48722.985639 -37679.698892 999999.999999
*  2023  2  8 18 29  0.00000000
PL65  -2166.875907   2351.541998  -6086.174419   5296.985695
VL65  45155.645862 -49804.501945 -35462.566052 999999.999999
*  2023  2  8 18 29 30.00000000
PL65  -2030.577050   2200.571445  -6189.188241   5297.455218
VL65  45701.176792 -50833.702449 -33207.138992 999999.999999
EOF
